COSMOS 2520             
1 42907U 17046A   26062.66672116  .00000123  00000+0  00000+0 0  9995
2 42907   0.0271 106.0298 0000783  14.1742 326.2357  1.00274511 31336
TDRS 13                 
1 42915U 17047A   26062.79819519 -.00000111  00000+0  00000+0 0  9997
2 42915   3.4295   0.0500 0010166  99.2582 338.1197  1.00272139 31292
QZS-3 (MICHIBIKI-3)     
1 42917U 17048A   26062.75425495 -.00000362  00000+0  00000+0 0  9990
2 42917   0.0736 218.1558 0002245 134.9982 206.8509  1.00276139 31205
AMAZONAS 5              
1 42934U 17053A   26062.50308675 -.00000297  00000+0  00000+0 0  9995
2 42934   0.0380 298.3560 0005385  31.6224 311.3811  1.00270810 30984
ASIASAT 9               
1 42942U 17057A   26062.82460309 -.00000373  00000+0  00000+0 0  9991
2 42942   0.0125 136.5027 0002265 204.2781 239.7562  1.00270666 30807
INTELSAT 37E (IS-37E)   
1 42950U 17059A   26062.79689519  .00000000  00000+0  00000+0 0  9990
2 42950   0.0264 150.0893 0002172 195.6789  84.6867  1.00269268 31004
BSAT-4A                 
1 42951U 17059B   26062.77371344  .00000000  00000+0  00000+0 0  9993
2 42951   0.0141 352.4323 0004149  32.1701 165.3382  1.00269413 30741
QZS-4 (MICHIBIKI-4)     
1 42965U 17062A   26062.71119281 -.00000343  00000+0  00000+0 0  9997
2 42965  40.1734 344.8321 0748758 269.8785 303.2235  1.00280942 30744
SES-11 (ECHOSTAR 105)   
1 42967U 17063A   26062.63699433 -.00000103  00000+0  00000+0 0  9997
2 42967   0.0348  70.5571 0002918 267.7089 307.4942  1.00272097 30661
KOREASAT 5A             
1 42984U 17067A   26062.77024112  .00000000  00000+0  00000+0 0  9996
2 42984   0.0198 144.0313 0001897 229.2533 178.7079  1.00268636 30479
ALCOMSAT 1              
1 43039U 17078A   26062.79550851 -.00000200  00000+0  00000+0 0  9999
2 43039   0.0634 268.7096 0002946  59.4098  95.0179  1.00272393 30234
SBIRS GEO-3 (USA 282)   
1 43162U 18009A   26062.76881504  .00000116  00000+0  00000+0 0  9995
2 43162   2.1218   6.8848 0002359 333.6916 298.3089  1.00272382 29786
AL YAH 3                
1 43174U 18012A   26062.79646185 -.00000169  00000+0  00000+0 0  9998
2 43174   1.2797  84.4602 0004278 267.3039  76.4076  1.00271844 29785
SES-14                  
1 43175U 18012B   26062.79100182 -.00000292  00000+0  00000+0 0  9998
2 43175   0.0165  76.2927 0000971 264.2264  58.2811  1.00271772  5962
GOES 17                 
1 43226U 18022A   26062.64011435 -.00000196  00000+0  00000+0 0  9995
2 43226   0.6662  87.5708 0002289 220.2416 354.5211  1.00270410 29368
HISPASAT 30W-6          
1 43228U 18023A   26062.79446851 -.00000230  00000+0  00000+0 0  9997
2 43228   0.0490  47.0879 0005319 312.1852  58.2533  1.00270378 29341
SUPERBIRD-B3            
1 43271U 18033A   26062.76118832  .00000000  00000+0  00000+0 0  9992
2 43271   0.0228 161.8289 0001446 200.7321 234.9853  1.00269183 29001
