[{"OBJECT_NAME":"COSMOS 2520","OBJECT_ID":"2017-046A","EPOCH":"2026-03-03T16:00:04.708224","MEAN_MOTION":1.00274511,"ECCENTRICITY":7.83e-5,"INCLINATION":0.0271,"RA_OF_ASC_NODE":106.0298,"ARG_OF_PERICENTER":14.1742,"MEAN_ANOMALY":326.2357,"EPHEMERIS_TYPE":0,"CLASSIFICATION_TYPE":"U","NORAD_CAT_ID":42907,"ELEMENT_SET_NO":999,"REV_AT_EPOCH":3133,"BSTAR":0,"MEAN_MOTION_DOT":1.23e-6,"MEAN_MOTION_DDOT":0},{"OBJECT_NAME":"TDRS 13","OBJECT_ID":"2017-047A","EPOCH":"2026-03-03T19:09:24.064416","MEAN_MOTION":1.00272139,"ECCENTRICITY":0.0010166,"INCLINATION":3.4295,"RA_OF_ASC_NODE":0.05,"ARG_OF_PERICENTER":99.2582,"MEAN_ANOMALY":338.1197,"EPHEMERIS_TYPE":0,"CLASSIFICATION_TYPE":"U","NORAD_CAT_ID":42915,"ELEMENT_SET_NO":999,"REV_AT_EPOCH":3129,"BSTAR":0,"MEAN_MOTION_DOT":-1.11e-6,"MEAN_MOTION_DDOT":0},{"OBJECT_NAME":"QZS-3 (MICHIBIKI-3)","OBJECT_ID":"2017-048A","EPOCH":"2026-03-03T18:06:07.627680","MEAN_MOTION":1.00276139,"ECCENTRICITY":0.0002245,"INCLINATION":0.0736,"RA_OF_ASC_NODE":218.1558,"ARG_OF_PERICENTER":134.9982,"MEAN_ANOMALY":206.8509,"EPHEMERIS_TYPE":0,"CLASSIFICATION_TYPE":"U","NORAD_CAT_ID":42917,"ELEMENT_SET_NO":999,"REV_AT_EPOCH":3120,"BSTAR":0,"MEAN_MOTION_DOT":-3.62e-6,"MEAN_MOTION_DDOT":0},{"OBJECT_NAME":"AMAZONAS 5","OBJECT_ID":"2017-053A","EPOCH":"2026-03-03T12:04:26.695200","MEAN_MOTION":1.0027081,"ECCENTRICITY":0.0005385,"INCLINATION":0.038,"RA_OF_ASC_NODE":298.356,"ARG_OF_PERICENTER":31.6224,"MEAN_ANOMALY":311.3811,"EPHEMERIS_TYPE":0,"CLASSIFICATION_TYPE":"U","NORAD_CAT_ID":42934,"ELEMENT_SET_NO":999,"REV_AT_EPOCH":3098,"BSTAR":0,"MEAN_MOTION_DOT":-2.97e-6,"MEAN_MOTION_DDOT":0},{"OBJECT_NAME":"ASIASAT 9","OBJECT_ID":"2017-057A","EPOCH":"2026-03-03T19:47:25.706976","MEAN_MOTION":1.00270666,"ECCENTRICITY":0.0002265,"INCLINATION":0.0125,"RA_OF_ASC_NODE":136.5027,"ARG_OF_PERICENTER":204.2781,"MEAN_ANOMALY":239.7562,"EPHEMERIS_TYPE":0,"CLASSIFICATION_TYPE":"U","NORAD_CAT_ID":42942,"ELEMENT_SET_NO":999,"REV_AT_EPOCH":3080,"BSTAR":0,"MEAN_MOTION_DOT":-3.73e-6,"MEAN_MOTION_DDOT":0},{"OBJECT_NAME":"INTELSAT 37E (IS-37E)","OBJECT_ID":"2017-059A","EPOCH":"2026-03-03T19:07:31.744416","MEAN_MOTION":1.00269268,"ECCENTRICITY":0.0002172,"INCLINATION":0.0264,"RA_OF_ASC_NODE":150.0893,"ARG_OF_PERICENTER":195.6789,"MEAN_ANOMALY":84.6867,"EPHEMERIS_TYPE":0,"CLASSIFICATION_TYPE":"U","NORAD_CAT_ID":42950,"ELEMENT_SET_NO":999,"REV_AT_EPOCH":3100,"BSTAR":0,"MEAN_MOTION_DOT":0,"MEAN_MOTION_DDOT":0},{"OBJECT_NAME":"BSAT-4A","OBJECT_ID":"2017-059B","EPOCH":"2026-03-03T18:34:08.841216","MEAN_MOTION":1.00269413,"ECCENTRICITY":0.0004149,"INCLINATION":0.0141,"RA_OF_ASC_NODE":352.4323,"ARG_OF_PERICENTER":32.1701,"MEAN_ANOMALY":165.3382,"EPHEMERIS_TYPE":0,"CLASSIFICATION_TYPE":"U","NORAD_CAT_ID":42951,"ELEMENT_SET_NO":999,"REV_AT_EPOCH":3074,"BSTAR":0,"MEAN_MOTION_DOT":0,"MEAN_MOTION_DDOT":0},{"OBJECT_NAME":"QZS-4 (MICHIBIKI-4)","OBJECT_ID":"2017-062A","EPOCH":"2026-03-03T17:04:07.058784","MEAN_MOTION":1.00280942,"ECCENTRICITY":0.0748758,"INCLINATION":40.1734,"RA_OF_ASC_NODE":344.8321,"ARG_OF_PERICENTER":269.8785,"MEAN_ANOMALY":303.2235,"EPHEMERIS_TYPE":0,"CLASSIFICATION_TYPE":"U","NORAD_CAT_ID":42965,"ELEMENT_SET_NO":999,"REV_AT_EPOCH":3074,"BSTAR":0,"MEAN_MOTION_DOT":-3.43e-6,"MEAN_MOTION_DDOT":0},{"OBJECT_NAME":"SES-11 (ECHOSTAR 105)","OBJECT_ID":"2017-063A","EPOCH":"2026-03-03T15:17:16.310112","MEAN_MOTION":1.00272097,"ECCENTRICITY":0.0002918,"INCLINATION":0.0348,"RA_OF_ASC_NODE":70.5571,"ARG_OF_PERICENTER":267.7089,"MEAN_ANOMALY":307.4942,"EPHEMERIS_TYPE":0,"CLASSIFICATION_TYPE":"U","NORAD_CAT_ID":42967,"ELEMENT_SET_NO":999,"REV_AT_EPOCH":3066,"BSTAR":0,"MEAN_MOTION_DOT":-1.03e-6,"MEAN_MOTION_DDOT":0},{"OBJECT_NAME":"KOREASAT 5A","OBJECT_ID":"2017-067A","EPOCH":"2026-03-03T18:29:08.832768","MEAN_MOTION":1.00268636,"ECCENTRICITY":0.0001897,"INCLINATION":0.0198,"RA_OF_ASC_NODE":144.0313,"ARG_OF_PERICENTER":229.2533,"MEAN_ANOMALY":178.7079,"EPHEMERIS_TYPE":0,"CLASSIFICATION_TYPE":"U","NORAD_CAT_ID":42984,"ELEMENT_SET_NO":999,"REV_AT_EPOCH":3047,"BSTAR":0,"MEAN_MOTION_DOT":0,"MEAN_MOTION_DDOT":0},{"OBJECT_NAME":"ALCOMSAT 1","OBJECT_ID":"2017-078A","EPOCH":"2026-03-03T19:05:31.935264","MEAN_MOTION":1.00272393,"ECCENTRICITY":0.0002946,"INCLINATION":0.0634,"RA_OF_ASC_NODE":268.7096,"ARG_OF_PERICENTER":59.4098,"MEAN_ANOMALY":95.0179,"EPHEMERIS_TYPE":0,"CLASSIFICATION_TYPE":"U","NORAD_CAT_ID":43039,"ELEMENT_SET_NO":999,"REV_AT_EPOCH":3023,"BSTAR":0,"MEAN_MOTION_DOT":-2.0e-6,"MEAN_MOTION_DDOT":0},{"OBJECT_NAME":"SBIRS GEO-3 (USA 282)","OBJECT_ID":"2018-009A","EPOCH":"2026-03-03T18:27:05.619456","MEAN_MOTION":1.00272382,"ECCENTRICITY":0.0002359,"INCLINATION":2.1218,"RA_OF_ASC_NODE":6.8848,"ARG_OF_PERICENTER":333.6916,"MEAN_ANOMALY":298.3089,"EPHEMERIS_TYPE":0,"CLASSIFICATION_TYPE":"U","NORAD_CAT_ID":43162,"ELEMENT_SET_NO":999,"REV_AT_EPOCH":2978,"BSTAR":0,"MEAN_MOTION_DOT":1.16e-6,"MEAN_MOTION_DDOT":0},{"OBJECT_NAME":"AL YAH 3","OBJECT_ID":"2018-012A","EPOCH":"2026-03-03T19:06:54.303840","MEAN_MOTION":1.00271844,"ECCENTRICITY":0.0004278,"INCLINATION":1.2797,"RA_OF_ASC_NODE":84.4602,"ARG_OF_PERICENTER":267.3039,"MEAN_ANOMALY":76.4076,"EPHEMERIS_TYPE":0,"CLASSIFICATION_TYPE":"U","NORAD_CAT_ID":43174,"ELEMENT_SET_NO":999,"REV_AT_EPOCH":2978,"BSTAR":0,"MEAN_MOTION_DOT":-1.69e-6,"MEAN_MOTION_DDOT":0},{"OBJECT_NAME":"SES-14","OBJECT_ID":"2018-012B","EPOCH":"2026-03-03T18:59:02.557248","MEAN_MOTION":1.00271772,"ECCENTRICITY":9.71e-5,"INCLINATION":0.0165,"RA_OF_ASC_NODE":76.2927,"ARG_OF_PERICENTER":264.2264,"MEAN_ANOMALY":58.2811,"EPHEMERIS_TYPE":0,"CLASSIFICATION_TYPE":"U","NORAD_CAT_ID":43175,"ELEMENT_SET_NO":999,"REV_AT_EPOCH":596,"BSTAR":0,"MEAN_MOTION_DOT":-2.92e-6,"MEAN_MOTION_DDOT":0},{"OBJECT_NAME":"GOES 17","OBJECT_ID":"2018-022A","EPOCH":"2026-03-03T15:21:45.879840","MEAN_MOTION":1.0027041,"ECCENTRICITY":0.0002289,"INCLINATION":0.6662,"RA_OF_ASC_NODE":87.5708,"ARG_OF_PERICENTER":220.2416,"MEAN_ANOMALY":354.5211,"EPHEMERIS_TYPE":0,"CLASSIFICATION_TYPE":"U","NORAD_CAT_ID":43226,"ELEMENT_SET_NO":999,"REV_AT_EPOCH":2936,"BSTAR":0,"MEAN_MOTION_DOT":-1.96e-6,"MEAN_MOTION_DDOT":0},{"OBJECT_NAME":"HISPASAT 30W-6","OBJECT_ID":"2018-023A","EPOCH":"2026-03-03T19:04:02.079264","MEAN_MOTION":1.00270378,"ECCENTRICITY":0.0005319,"INCLINATION":0.049,"RA_OF_ASC_NODE":47.0879,"ARG_OF_PERICENTER":312.1852,"MEAN_ANOMALY":58.2533,"EPHEMERIS_TYPE":0,"CLASSIFICATION_TYPE":"U","NORAD_CAT_ID":43228,"ELEMENT_SET_NO":999,"REV_AT_EPOCH":2934,"BSTAR":0,"MEAN_MOTION_DOT":-2.3e-6,"MEAN_MOTION_DDOT":0},{"OBJECT_NAME":"SUPERBIRD-B3","OBJECT_ID":"2018-033A","EPOCH":"2026-03-03T18:16:06.670848","MEAN_MOTION":1.00269183,"ECCENTRICITY":0.0001446,"INCLINATION":0.0228,"RA_OF_ASC_NODE":161.8289,"ARG_OF_PERICENTER":200.7321,"MEAN_ANOMALY":234.9853,"EPHEMERIS_TYPE":0,"CLASSIFICATION_TYPE":"U","NORAD_CAT_ID":43271,"ELEMENT_SET_NO":999,"REV_AT_EPOCH":2900,"BSTAR":0,"MEAN_MOTION_DOT":0,"MEAN_MOTION_DDOT":0}]
